{
  "type": "FeatureCollection",
  "features": [
    {
      "type": "Feature",
      "properties": {
        "norad_id": 41860,
        "name": "GSAT0212 (GALILEO 16)",
        "group": "galileo",
        "lat": 51.895922141363265,
        "lon": 167.85518833740267,
        "alt_km": 23211.548244845962,
        "timestamp": "2025-12-13T22:39:29.972866+00:00",
        "meta_object_name": "GSAT0212 (GALILEO 16)",
        "meta_object_id": "2016-069B",
        "meta_epoch": "2025-12-11T11:29:42.448992",
        "meta_mean_motion": 1.70474595,
        "meta_eccentricity": 0.00021636,
        "meta_inclination": 55.3791,
        "meta_ra_of_asc_node": 106.2805,
        "meta_arg_of_pericenter": 27.6057,
        "meta_mean_anomaly": 332.3763,
        "meta_ephemeris_type": 0,
        "meta_classification_type": "U",
        "meta_norad_cat_id": 41860,
        "meta_element_set_no": 999,
        "meta_rev_at_epoch": 5645,
        "meta_bstar": 0,
        "meta_mean_motion_dot": 8e-08,
        "meta_mean_motion_ddot": 0,
        "tle_line1": "1 41860U 16069B   25345.47896353  .00000008  00000+0  00000+0 0  9991",
        "tle_line2": "2 41860  55.3791 106.2805 0002163  27.6057 332.3763  1.70474595 56451"
      },
      "geometry": {
        "type": "Point",
        "coordinates": [
          167.85518833740267,
          51.895922141363265
        ]
      }
    },
    {
      "type": "Feature",
      "properties": {
        "norad_id": 41861,
        "name": "GSAT0213 (GALILEO 17)",
        "group": "galileo",
        "lat": -22.201680582570255,
        "lon": -57.4332803588931,
        "alt_km": 23223.429521872968,
        "timestamp": "2025-12-13T22:39:29.972881+00:00",
        "meta_object_name": "GSAT0213 (GALILEO 17)",
        "meta_object_id": "2016-069C",
        "meta_epoch": "2025-12-11T06:14:19.190112",
        "meta_mean_motion": 1.70474845,
        "meta_eccentricity": 0.00023572,
        "meta_inclination": 55.3813,
        "meta_ra_of_asc_node": 106.2942,
        "meta_arg_of_pericenter": 283.5833,
        "meta_mean_anomaly": 76.361,
        "meta_ephemeris_type": 0,
        "meta_classification_type": "U",
        "meta_norad_cat_id": 41861,
        "meta_element_set_no": 999,
        "meta_rev_at_epoch": 5631,
        "meta_bstar": 0,
        "meta_mean_motion_dot": 9e-08,
        "meta_mean_motion_ddot": 0,
        "tle_line1": "1 41861U 16069C   25345.25994433  .00000009  00000+0  00000+0 0  9997",
        "tle_line2": "2 41861  55.3813 106.2942 0002357 283.5833  76.3610  1.70474845 56318"
      },
      "geometry": {
        "type": "Point",
        "coordinates": [
          -57.4332803588931,
          -22.201680582570255
        ]
      }
    },
    {
      "type": "Feature",
      "properties": {
        "norad_id": 41862,
        "name": "GSAT0214 (GALILEO 18)",
        "group": "galileo",
        "lat": 46.747965646827055,
        "lon": -120.99194466974781,
        "alt_km": 23220.546206519222,
        "timestamp": "2025-12-13T22:39:29.972893+00:00",
        "meta_object_name": "GSAT0214 (GALILEO 18)",
        "meta_object_id": "2016-069D",
        "meta_epoch": "2025-12-12T13:53:54.735936",
        "meta_mean_motion": 1.70474744,
        "meta_eccentricity": 0.00013694,
        "meta_inclination": 55.3802,
        "meta_ra_of_asc_node": 106.2504,
        "meta_arg_of_pericenter": 290.3791,
        "meta_mean_anomaly": 69.576,
        "meta_ephemeris_type": 0,
        "meta_classification_type": "U",
        "meta_norad_cat_id": 41862,
        "meta_element_set_no": 999,
        "meta_rev_at_epoch": 5646,
        "meta_bstar": 0,
        "meta_mean_motion_dot": 4e-08,
        "meta_mean_motion_ddot": 0,
        "tle_line1": "1 41862U 16069D   25346.57910574  .00000004  00000+0  00000+0 0  9993",
        "tle_line2": "2 41862  55.3802 106.2504 0001369 290.3791  69.5760  1.70474744 56466"
      },
      "geometry": {
        "type": "Point",
        "coordinates": [
          -120.99194466974781,
          46.747965646827055
        ]
      }
    },
    {
      "type": "Feature",
      "properties": {
        "norad_id": 43055,
        "name": "GSAT0215 (GALILEO 19)",
        "group": "galileo",
        "lat": 2.5140513796945307,
        "lon": 44.85892313656123,
        "alt_km": 23225.856486906334,
        "timestamp": "2025-12-13T22:39:29.972905+00:00",
        "meta_object_name": "GSAT0215 (GALILEO 19)",
        "meta_object_id": "2017-079A",
        "meta_epoch": "2025-12-11T21:30:24.060384",
        "meta_mean_motion": 1.704739,
        "meta_eccentricity": 0.00012658,
        "meta_inclination": 55.1303,
        "meta_ra_of_asc_node": 226.661,
        "meta_arg_of_pericenter": 350.6161,
        "meta_mean_anomaly": 9.46,
        "meta_ephemeris_type": 0,
        "meta_classification_type": "U",
        "meta_norad_cat_id": 43055,
        "meta_element_set_no": 999,
        "meta_rev_at_epoch": 4979,
        "meta_bstar": 0,
        "meta_mean_motion_dot": 1.3e-07,
        "meta_mean_motion_ddot": 0,
        "tle_line1": "1 43055U 17079A   25345.89611181  .00000013  00000+0  00000+0 0  9997",
        "tle_line2": "2 43055  55.1303 226.6610 0001265 350.6161   9.4600  1.70473900 49794"
      },
      "geometry": {
        "type": "Point",
        "coordinates": [
          44.85892313656123,
          2.5140513796945307
        ]
      }
    },
    {
      "type": "Feature",
      "properties": {
        "norad_id": 43056,
        "name": "GSAT0216 (GALILEO 20)",
        "group": "galileo",
        "lat": -1.5366789927849145,
        "lon": -134.45919524891798,
        "alt_km": 23216.87365888759,
        "timestamp": "2025-12-13T22:39:29.972917+00:00",
        "meta_object_name": "GSAT0216 (GALILEO 20)",
        "meta_object_id": "2017-079B",
        "meta_epoch": "2025-12-10T10:15:48.535776",
        "meta_mean_motion": 1.70473969,
        "meta_eccentricity": 0.000248,
        "meta_inclination": 55.1311,
        "meta_ra_of_asc_node": 226.7014,
        "meta_arg_of_pericenter": 319.9818,
        "meta_mean_anomaly": 40.0811,
        "meta_ephemeris_type": 0,
        "meta_classification_type": "U",
        "meta_norad_cat_id": 43056,
        "meta_element_set_no": 999,
        "meta_rev_at_epoch": 4978,
        "meta_bstar": 0,
        "meta_mean_motion_dot": 9e-08,
        "meta_mean_motion_ddot": 0,
        "tle_line1": "1 43056U 17079B   25344.42764509  .00000009  00000+0  00000+0 0  9994",
        "tle_line2": "2 43056  55.1311 226.7014 0002480 319.9818  40.0811  1.70473969 49789"
      },
      "geometry": {
        "type": "Point",
        "coordinates": [
          -134.45919524891798,
          -1.5366789927849145
        ]
      }
    },
    {
      "type": "Feature",
      "properties": {
        "norad_id": 43057,
        "name": "GSAT0217 (GALILEO 21)",
        "group": "galileo",
        "lat": -33.7944161724072,
        "lon": 74.40182342071338,
        "alt_km": 23230.85564434993,
        "timestamp": "2025-12-13T22:39:29.972929+00:00",
        "meta_object_name": "GSAT0217 (GALILEO 21)",
        "meta_object_id": "2017-079C",
        "meta_epoch": "2025-12-11T19:42:59.251104",
        "meta_mean_motion": 1.7047397,
        "meta_eccentricity": 0.00027961,
        "meta_inclination": 55.1287,
        "meta_ra_of_asc_node": 226.661,
        "meta_arg_of_pericenter": 345.2118,
        "meta_mean_anomaly": 14.8584,
        "meta_ephemeris_type": 0,
        "meta_classification_type": "U",
        "meta_norad_cat_id": 43057,
        "meta_element_set_no": 999,
        "meta_rev_at_epoch": 4979,
        "meta_bstar": 0,
        "meta_mean_motion_dot": 1.2e-07,
        "meta_mean_motion_ddot": 0,
        "tle_line1": "1 43057U 17079C   25345.82151911  .00000012  00000+0  00000+0 0  9991",
        "tle_line2": "2 43057  55.1287 226.6610 0002796 345.2118  14.8584  1.70473970 49797"
      },
      "geometry": {
        "type": "Point",
        "coordinates": [
          74.40182342071338,
          -33.7944161724072
        ]
      }
    },
    {
      "type": "Feature",
      "properties": {
        "norad_id": 43058,
        "name": "GSAT0218 (GALILEO 22)",
        "group": "galileo",
        "lat": 55.06786881765546,
        "lon": -47.50958917607358,
        "alt_km": 23222.35658789336,
        "timestamp": "2025-12-13T22:39:29.972940+00:00",
        "meta_object_name": "GSAT0218 (GALILEO 22)",
        "meta_object_id": "2017-079D",
        "meta_epoch": "2025-12-12T15:04:31.769472",
        "meta_mean_motion": 1.70474063,
        "meta_eccentricity": 0.00028411,
        "meta_inclination": 55.1287,
        "meta_ra_of_asc_node": 226.6365,
        "meta_arg_of_pericenter": 306.3289,
        "meta_mean_anomaly": 53.7237,
        "meta_ephemeris_type": 0,
        "meta_classification_type": "U",
        "meta_norad_cat_id": 43058,
        "meta_element_set_no": 999,
        "meta_rev_at_epoch": 4983,
        "meta_bstar": 0,
        "meta_mean_motion_dot": 1.7e-07,
        "meta_mean_motion_ddot": 0,
        "tle_line1": "1 43058U 17079D   25346.62814548  .00000017  00000+0  00000+0 0  9998",
        "tle_line2": "2 43058  55.1287 226.6365 0002841 306.3289  53.7237  1.70474063 49839"
      },
      "geometry": {
        "type": "Point",
        "coordinates": [
          -47.50958917607358,
          55.06786881765546
        ]
      }
    }
  ]
}